CCSDS_OMM_VERS = 2.0
CREATION_DATE  = 
ORIGINATOR     = 

OBJECT_NAME    = STARLINK-35179
OBJECT_ID      = 2025-235J
CENTER_NAME    = EARTH
REF_FRAME      = TEME
TIME_SYSTEM    = UTC
MEAN_ELEMENT_THEORY = SGP/SGP4

EPOCH          = 2025-11-12T06:00:02.999808
MEAN_MOTION    = 15.49510860
ECCENTRICITY   = .00012263
INCLINATION    = 53.1601
RA_OF_ASC_NODE = 72.8752
ARG_OF_PERICENTER = 88.0151
MEAN_ANOMALY   = 181.3908

EPHEMERIS_TYPE = 0
CLASSIFICATION_TYPE = U
NORAD_CAT_ID   = 66066
ELEMENT_SET_NO = 999
REV_AT_EPOCH   = 497
BSTAR          = -.10810599E-1
MEAN_MOTION_DOT = -.564217E-2
MEAN_MOTION_DDOT = 0

CCSDS_OMM_VERS = 2.0
CREATION_DATE  = 
ORIGINATOR     = 

OBJECT_NAME    = STARLINK-35401
OBJECT_ID      = 2025-235K
CENTER_NAME    = EARTH
REF_FRAME      = TEME
TIME_SYSTEM    = UTC
MEAN_ELEMENT_THEORY = SGP/SGP4

EPOCH          = 2025-11-12T06:00:02.999808
MEAN_MOTION    = 15.49317625
ECCENTRICITY   = .00012105
INCLINATION    = 53.1602
RA_OF_ASC_NODE = 72.8707
ARG_OF_PERICENTER = 81.3633
MEAN_ANOMALY   = 189.9936

EPHEMERIS_TYPE = 0
CLASSIFICATION_TYPE = U
NORAD_CAT_ID   = 66067
ELEMENT_SET_NO = 999
REV_AT_EPOCH   = 492
BSTAR          = .12907447E-3
MEAN_MOTION_DOT = .6739E-4
MEAN_MOTION_DDOT = 0

CCSDS_OMM_VERS = 2.0
CREATION_DATE  = 
ORIGINATOR     = 

OBJECT_NAME    = STARLINK-35422
OBJECT_ID      = 2025-235L
CENTER_NAME    = EARTH
REF_FRAME      = TEME
TIME_SYSTEM    = UTC
MEAN_ELEMENT_THEORY = SGP/SGP4

EPOCH          = 2025-11-12T06:00:02.999808
MEAN_MOTION    = 15.49313434
ECCENTRICITY   = .00012208
INCLINATION    = 53.1602
RA_OF_ASC_NODE = 72.8668
ARG_OF_PERICENTER = 80.9980
MEAN_ANOMALY   = 192.2774

EPHEMERIS_TYPE = 0
CLASSIFICATION_TYPE = U
NORAD_CAT_ID   = 66068
ELEMENT_SET_NO = 999
REV_AT_EPOCH   = 492
BSTAR          = .23310873E-3
MEAN_MOTION_DOT = .12539E-3
MEAN_MOTION_DDOT = 0

CCSDS_OMM_VERS = 2.0
CREATION_DATE  = 
ORIGINATOR     = 

OBJECT_NAME    = STARLINK-35279
OBJECT_ID      = 2025-235M
CENTER_NAME    = EARTH
REF_FRAME      = TEME
TIME_SYSTEM    = UTC
MEAN_ELEMENT_THEORY = SGP/SGP4

EPOCH          = 2025-11-12T06:00:02.999808
MEAN_MOTION    = 15.49308084
ECCENTRICITY   = .00012324
INCLINATION    = 53.1602
RA_OF_ASC_NODE = 72.8630
ARG_OF_PERICENTER = 79.6029
MEAN_ANOMALY   = 195.5906

EPHEMERIS_TYPE = 0
CLASSIFICATION_TYPE = U
NORAD_CAT_ID   = 66069
ELEMENT_SET_NO = 999
REV_AT_EPOCH   = 497
BSTAR          = .36186168E-3
MEAN_MOTION_DOT = .19727E-3
MEAN_MOTION_DDOT = 0

CCSDS_OMM_VERS = 2.0
CREATION_DATE  = 
ORIGINATOR     = 

OBJECT_NAME    = STARLINK-35295
OBJECT_ID      = 2025-235N
CENTER_NAME    = EARTH
REF_FRAME      = TEME
TIME_SYSTEM    = UTC
MEAN_ELEMENT_THEORY = SGP/SGP4

EPOCH          = 2025-11-12T06:00:02.999808
MEAN_MOTION    = 15.49324736
ECCENTRICITY   = .00010461
INCLINATION    = 53.1604
RA_OF_ASC_NODE = 72.8560
ARG_OF_PERICENTER = 93.3488
MEAN_ANOMALY   = 185.5667

EPHEMERIS_TYPE = 0
CLASSIFICATION_TYPE = U
NORAD_CAT_ID   = 66070
ELEMENT_SET_NO = 999
REV_AT_EPOCH   = 497
BSTAR          = .12156672E-2
MEAN_MOTION_DOT = .67788E-3
MEAN_MOTION_DDOT = 0

CCSDS_OMM_VERS = 2.0
CREATION_DATE  = 
ORIGINATOR     = 

OBJECT_NAME    = STARLINK-35323
OBJECT_ID      = 2025-235P
CENTER_NAME    = EARTH
REF_FRAME      = TEME
TIME_SYSTEM    = UTC
MEAN_ELEMENT_THEORY = SGP/SGP4

EPOCH          = 2025-11-12T06:00:02.999808
MEAN_MOTION    = 15.49314636
ECCENTRICITY   = .00011712
INCLINATION    = 53.1601
RA_OF_ASC_NODE = 72.8588
ARG_OF_PERICENTER = 94.7053
MEAN_ANOMALY   = 182.4310

EPHEMERIS_TYPE = 0
CLASSIFICATION_TYPE = U
NORAD_CAT_ID   = 66071
ELEMENT_SET_NO = 999
REV_AT_EPOCH   = 497
BSTAR          = -.77673222E-3
MEAN_MOTION_DOT = -.43416E-3
MEAN_MOTION_DDOT = 0

CCSDS_OMM_VERS = 2.0
CREATION_DATE  = 
ORIGINATOR     = 

OBJECT_NAME    = STARLINK-35299
OBJECT_ID      = 2025-235Q
CENTER_NAME    = EARTH
REF_FRAME      = TEME
TIME_SYSTEM    = UTC
MEAN_ELEMENT_THEORY = SGP/SGP4

EPOCH          = 2025-11-12T06:00:02.999808
MEAN_MOTION    = 15.39629890
ECCENTRICITY   = .00015402
INCLINATION    = 53.1600
RA_OF_ASC_NODE = 72.9277
ARG_OF_PERICENTER = 92.7093
MEAN_ANOMALY   = 149.6122

EPHEMERIS_TYPE = 0
CLASSIFICATION_TYPE = U
NORAD_CAT_ID   = 66072
ELEMENT_SET_NO = 999
REV_AT_EPOCH   = 497
BSTAR          = -.14197583E-2
MEAN_MOTION_DOT = -.56787E-3
MEAN_MOTION_DDOT = 0

CCSDS_OMM_VERS = 2.0
CREATION_DATE  = 
ORIGINATOR     = 

OBJECT_NAME    = STARLINK-35274
OBJECT_ID      = 2025-235R
CENTER_NAME    = EARTH
REF_FRAME      = TEME
TIME_SYSTEM    = UTC
MEAN_ELEMENT_THEORY = SGP/SGP4

EPOCH          = 2025-11-12T06:00:02.999808
MEAN_MOTION    = 15.42463691
ECCENTRICITY   = .00014298
INCLINATION    = 53.1602
RA_OF_ASC_NODE = 72.8827
ARG_OF_PERICENTER = 77.0524
MEAN_ANOMALY   = 187.6088

EPHEMERIS_TYPE = 0
CLASSIFICATION_TYPE = U
NORAD_CAT_ID   = 66073
ELEMENT_SET_NO = 999
REV_AT_EPOCH   = 497
BSTAR          = -.47338806E-1
MEAN_MOTION_DOT = -.1869702E-1
MEAN_MOTION_DDOT = 0

CCSDS_OMM_VERS = 2.0
CREATION_DATE  = 
ORIGINATOR     = 

OBJECT_NAME    = STARLINK-35321
OBJECT_ID      = 2025-235S
CENTER_NAME    = EARTH
REF_FRAME      = TEME
TIME_SYSTEM    = UTC
MEAN_ELEMENT_THEORY = SGP/SGP4

EPOCH          = 2025-11-12T06:00:02.999808
MEAN_MOTION    = 15.45632672
ECCENTRICITY   = .00012481
INCLINATION    = 53.1601
RA_OF_ASC_NODE = 72.8527
ARG_OF_PERICENTER = 95.2910
MEAN_ANOMALY   = 184.1053

EPHEMERIS_TYPE = 0
CLASSIFICATION_TYPE = U
NORAD_CAT_ID   = 66074
ELEMENT_SET_NO = 999
REV_AT_EPOCH   = 497
BSTAR          = -.47111097E-1
MEAN_MOTION_DOT = -.2051162E-1
MEAN_MOTION_DDOT = 0

CCSDS_OMM_VERS = 2.0
CREATION_DATE  = 
ORIGINATOR     = 

OBJECT_NAME    = STARLINK-35131
OBJECT_ID      = 2025-235T
CENTER_NAME    = EARTH
REF_FRAME      = TEME
TIME_SYSTEM    = UTC
MEAN_ELEMENT_THEORY = SGP/SGP4

EPOCH          = 2025-11-12T06:00:02.999808
MEAN_MOTION    = 15.49310242
ECCENTRICITY   = .0001211
INCLINATION    = 53.1604
RA_OF_ASC_NODE = 72.8297
ARG_OF_PERICENTER = 79.7687
MEAN_ANOMALY   = 210.7572

EPHEMERIS_TYPE = 0
CLASSIFICATION_TYPE = U
NORAD_CAT_ID   = 66075
ELEMENT_SET_NO = 999
REV_AT_EPOCH   = 497
BSTAR          = .34826055E-3
MEAN_MOTION_DOT = .18968E-3
MEAN_MOTION_DDOT = 0

CCSDS_OMM_VERS = 2.0
CREATION_DATE  = 
ORIGINATOR     = 

OBJECT_NAME    = STARLINK-34801
OBJECT_ID      = 2025-235U
CENTER_NAME    = EARTH
REF_FRAME      = TEME
TIME_SYSTEM    = UTC
MEAN_ELEMENT_THEORY = SGP/SGP4

EPOCH          = 2025-11-12T06:00:02.999808
MEAN_MOTION    = 15.48725062
ECCENTRICITY   = .00011545
INCLINATION    = 53.1600
RA_OF_ASC_NODE = 72.8384
ARG_OF_PERICENTER = 94.9107
MEAN_ANOMALY   = 191.6376

EPHEMERIS_TYPE = 0
CLASSIFICATION_TYPE = U
NORAD_CAT_ID   = 66076
ELEMENT_SET_NO = 999
REV_AT_EPOCH   = 497
BSTAR          = -.42306591E-1
MEAN_MOTION_DOT = -.2052321E-1
MEAN_MOTION_DDOT = 0

CCSDS_OMM_VERS = 2.0
CREATION_DATE  = 
ORIGINATOR     = 

OBJECT_NAME    = STARLINK-35129
OBJECT_ID      = 2025-235V
CENTER_NAME    = EARTH
REF_FRAME      = TEME
TIME_SYSTEM    = UTC
MEAN_ELEMENT_THEORY = SGP/SGP4

EPOCH          = 2025-11-12T06:00:02.999808
MEAN_MOTION    = 15.49285123
ECCENTRICITY   = .00013227
INCLINATION    = 53.1601
RA_OF_ASC_NODE = 72.8346
ARG_OF_PERICENTER = 78.4807
MEAN_ANOMALY   = 210.1343

EPHEMERIS_TYPE = 0
CLASSIFICATION_TYPE = U
NORAD_CAT_ID   = 66077
ELEMENT_SET_NO = 999
REV_AT_EPOCH   = 497
BSTAR          = .12393402E-2
MEAN_MOTION_DOT = .69032E-3
MEAN_MOTION_DDOT = 0

