STARLINK-35179          
1 66066U 25235J   25316.25003472 -.00564217  00000+0 -10811-1 0  9999
2 66066  53.1601  72.8752 0001226  88.0151 181.3908 15.49510860  4976
STARLINK-35401          
1 66067U 25235K   25316.25003472  .00006739  00000+0  12907-3 0  9998
2 66067  53.1602  72.8707 0001210  81.3633 189.9936 15.49317625  4926
STARLINK-35422          
1 66068U 25235L   25316.25003472  .00012539  00000+0  23311-3 0  9995
2 66068  53.1602  72.8668 0001220  80.9980 192.2774 15.49313434  4925
STARLINK-35279          
1 66069U 25235M   25316.25003472  .00019727  00000+0  36186-3 0  9996
2 66069  53.1602  72.8630 0001232  79.6029 195.5906 15.49308084  4970
STARLINK-35295          
1 66070U 25235N   25316.25003472  .00067788  00000+0  12157-2 0  9999
2 66070  53.1604  72.8560 0001046  93.3488 185.5667 15.49324736  4976
STARLINK-35323          
1 66071U 25235P   25316.25003472 -.00043416  00000+0 -77673-3 0  9999
2 66071  53.1601  72.8588 0001171  94.7053 182.4310 15.49314636  4975
STARLINK-35299          
1 66072U 25235Q   25316.25003472 -.00056787  00000+0 -14198-2 0  9997
2 66072  53.1600  72.9277 0001540  92.7093 149.6122 15.39629890  4979
STARLINK-35274          
1 66073U 25235R   25316.25003472 -.01869702  00000+0 -47339-1 0  9990
2 66073  53.1602  72.8827 0001429  77.0524 187.6088 15.42463691  4975
STARLINK-35321          
1 66074U 25235S   25316.25003472 -.02051162  00000+0 -47111-1 0  9993
2 66074  53.1601  72.8527 0001248  95.2910 184.1053 15.45632672  4976
STARLINK-35131          
1 66075U 25235T   25316.25003472  .00018968  00000+0  34826-3 0  9998
2 66075  53.1604  72.8297 0001211  79.7687 210.7572 15.49310242  4974
STARLINK-34801          
1 66076U 25235U   25316.25003472 -.02052321  00000+0 -42307-1 0  9995
2 66076  53.1600  72.8384 0001154  94.9107 191.6376 15.48725062  4978
STARLINK-35129          
1 66077U 25235V   25316.25003472  .00069032  00000+0  12393-2 0  9992
2 66077  53.1601  72.8346 0001322  78.4807 210.1343 15.49285123  4970
